[{"OBJECT_NAME":"SJ-11-03","OBJECT_ID":"2011-030A","EPOCH":"2026-03-09T23:29:54.715200","MEAN_MOTION":14.64220728,"ECCENTRICITY":0.00083094,"INCLINATION":97.9236,"RA_OF_ASC_NODE":36.6626,"ARG_OF_PERICENTER":357.4545,"MEAN_ANOMALY":43.1151,"EPHEMERIS_TYPE":0,"CLASSIFICATION_TYPE":"U","NORAD_CAT_ID":37730,"ELEMENT_SET_NO":999,"REV_AT_EPOCH":78259,"BSTAR":0.00019672092,"MEAN_MOTION_DOT":9.91e-6,"MEAN_MOTION_DDOT":0},{"OBJECT_NAME":"FREGAT DEB","OBJECT_ID":"2011-037AR","EPOCH":"2026-03-09T23:12:46.624320","MEAN_MOTION":13.02646407,"ECCENTRICITY":0.07645176,"INCLINATION":51.5011,"RA_OF_ASC_NODE":347.5296,"ARG_OF_PERICENTER":70.5916,"MEAN_ANOMALY":297.5939,"EPHEMERIS_TYPE":0,"CLASSIFICATION_TYPE":"U","NORAD_CAT_ID":45649,"ELEMENT_SET_NO":999,"REV_AT_EPOCH":25005,"BSTAR":0.072330347,"MEAN_MOTION_DOT":0.00094528,"MEAN_MOTION_DDOT":0}]
